[{"OBJECT_NAME":"IRIDIUM 33 DEB","OBJECT_ID":"1997-051GC","EPOCH":"2026-03-04T04:45:09.314208","MEAN_MOTION":14.43371922,"ECCENTRICITY":0.00293,"INCLINATION":86.3484,"RA_OF_ASC_NODE":337.3222,"ARG_OF_PERICENTER":218.4002,"MEAN_ANOMALY":305.7839,"EPHEMERIS_TYPE":0,"CLASSIFICATION_TYPE":"U","NORAD_CAT_ID":34487,"ELEMENT_SET_NO":999,"REV_AT_EPOCH":89423,"BSTAR":0.00026701,"MEAN_MOTION_DOT":9.25e-6,"MEAN_MOTION_DDOT":0},{"OBJECT_NAME":"IRIDIUM 33 DEB","OBJECT_ID":"1997-051GD","EPOCH":"2026-02-22T01:06:52.109280","MEAN_MOTION":15.78089963,"ECCENTRICITY":0.00047702,"INCLINATION":86.3081,"RA_OF_ASC_NODE":269.542,"ARG_OF_PERICENTER":70.8002,"MEAN_ANOMALY":289.3788,"EPHEMERIS_TYPE":0,"CLASSIFICATION_TYPE":"U","NORAD_CAT_ID":34488,"ELEMENT_SET_NO":999,"REV_AT_EPOCH":90341,"BSTAR":0.0064727089,"MEAN_MOTION_DOT":0.01238203,"MEAN_MOTION_DDOT":0},{"OBJECT_NAME":"IRIDIUM 33 DEB","OBJECT_ID":"1997-051GH","EPOCH":"2026-03-03T15:12:33.619680","MEAN_MOTION":14.27603126,"ECCENTRICITY":0.0186973,"INCLINATION":86.4708,"RA_OF_ASC_NODE":301.8898,"ARG_OF_PERICENTER":339.1012,"MEAN_ANOMALY":48.8875,"EPHEMERIS_TYPE":0,"CLASSIFICATION_TYPE":"U","NORAD_CAT_ID":34492,"ELEMENT_SET_NO":999,"REV_AT_EPOCH":86212,"BSTAR":0.0050088,"MEAN_MOTION_DOT":0.00014887,"MEAN_MOTION_DDOT":0},{"OBJECT_NAME":"IRIDIUM 33 DEB","OBJECT_ID":"1997-051GN","EPOCH":"2026-03-03T08:15:19.478880","MEAN_MOTION":14.27752546,"ECCENTRICITY":0.00824038,"INCLINATION":86.2804,"RA_OF_ASC_NODE":17.9487,"ARG_OF_PERICENTER":78.5013,"MEAN_ANOMALY":72.868,"EPHEMERIS_TYPE":0,"CLASSIFICATION_TYPE":"U","NORAD_CAT_ID":34497,"ELEMENT_SET_NO":999,"REV_AT_EPOCH":88033,"BSTAR":0.00094382095,"MEAN_MOTION_DOT":2.434e-5,"MEAN_MOTION_DDOT":0},{"OBJECT_NAME":"IRIDIUM 33 DEB","OBJECT_ID":"1997-051GZ","EPOCH":"2026-03-03T11:50:58.043904","MEAN_MOTION":14.39076456,"ECCENTRICITY":0.00617665,"INCLINATION":86.3655,"RA_OF_ASC_NODE":68.3662,"ARG_OF_PERICENTER":268.6215,"MEAN_ANOMALY":90.7907,"EPHEMERIS_TYPE":0,"CLASSIFICATION_TYPE":"U","NORAD_CAT_ID":34508,"ELEMENT_SET_NO":999,"REV_AT_EPOCH":88470,"BSTAR":0.0013292366,"MEAN_MOTION_DOT":4.218e-5,"MEAN_MOTION_DDOT":0},{"OBJECT_NAME":"IRIDIUM 33 DEB","OBJECT_ID":"1997-051HN","EPOCH":"2026-03-03T20:26:21.050592","MEAN_MOTION":14.64559514,"ECCENTRICITY":0.0005056,"INCLINATION":86.3835,"RA_OF_ASC_NODE":354.8102,"ARG_OF_PERICENTER":22.0148,"MEAN_ANOMALY":338.1281,"EPHEMERIS_TYPE":0,"CLASSIFICATION_TYPE":"U","NORAD_CAT_ID":34521,"ELEMENT_SET_NO":999,"REV_AT_EPOCH":89659,"BSTAR":0.0019361,"MEAN_MOTION_DOT":0.00010299,"MEAN_MOTION_DDOT":0},{"OBJECT_NAME":"IRIDIUM 33 DEB","OBJECT_ID":"1997-051HS","EPOCH":"2026-03-03T19:45:48.715200","MEAN_MOTION":14.43154742,"ECCENTRICITY":0.0004484,"INCLINATION":86.3766,"RA_OF_ASC_NODE":12.2223,"ARG_OF_PERICENTER":154.085,"MEAN_ANOMALY":270.6719,"EPHEMERIS_TYPE":0,"CLASSIFICATION_TYPE":"U","NORAD_CAT_ID":34525,"ELEMENT_SET_NO":999,"REV_AT_EPOCH":89257,"BSTAR":0.00053993,"MEAN_MOTION_DOT":1.832e-5,"MEAN_MOTION_DDOT":0},{"OBJECT_NAME":"IRIDIUM 33 DEB","OBJECT_ID":"1997-051HW","EPOCH":"2026-03-03T19:48:08.773056","MEAN_MOTION":14.40728752,"ECCENTRICITY":0.00033839,"INCLINATION":86.369,"RA_OF_ASC_NODE":0.846,"ARG_OF_PERICENTER":317.5123,"MEAN_ANOMALY":42.5814,"EPHEMERIS_TYPE":0,"CLASSIFICATION_TYPE":"U","NORAD_CAT_ID":34529,"ELEMENT_SET_NO":999,"REV_AT_EPOCH":89309,"BSTAR":0.00027049847,"MEAN_MOTION_DOT":8.84e-6,"MEAN_MOTION_DDOT":0},{"OBJECT_NAME":"IRIDIUM 33 DEB","OBJECT_ID":"1997-051JF","EPOCH":"2026-03-04T04:10:20.098272","MEAN_MOTION":14.43244168,"ECCENTRICITY":0.0036561,"INCLINATION":86.2803,"RA_OF_ASC_NODE":329.8895,"ARG_OF_PERICENTER":56.3218,"MEAN_ANOMALY":97.7254,"EPHEMERIS_TYPE":0,"CLASSIFICATION_TYPE":"U","NORAD_CAT_ID":34538,"ELEMENT_SET_NO":999,"REV_AT_EPOCH":88930,"BSTAR":0.0011659,"MEAN_MOTION_DOT":3.973e-5,"MEAN_MOTION_DDOT":0},{"OBJECT_NAME":"IRIDIUM 33 DEB","OBJECT_ID":"1997-051JH","EPOCH":"2026-03-04T01:55:39.785376","MEAN_MOTION":14.77274849,"ECCENTRICITY":0.0014355,"INCLINATION":86.3049,"RA_OF_ASC_NODE":270.3553,"ARG_OF_PERICENTER":244.9978,"MEAN_ANOMALY":245.313,"EPHEMERIS_TYPE":0,"CLASSIFICATION_TYPE":"U","NORAD_CAT_ID":34540,"ELEMENT_SET_NO":999,"REV_AT_EPOCH":90221,"BSTAR":0.001907,"MEAN_MOTION_DOT":0.00013583,"MEAN_MOTION_DDOT":0},{"OBJECT_NAME":"IRIDIUM 33 DEB","OBJECT_ID":"1997-051JZ","EPOCH":"2026-03-03T12:27:00.491616","MEAN_MOTION":14.13320435,"ECCENTRICITY":0.0176101,"INCLINATION":86.3888,"RA_OF_ASC_NODE":249.2844,"ARG_OF_PERICENTER":42.7162,"MEAN_ANOMALY":318.7556,"EPHEMERIS_TYPE":0,"CLASSIFICATION_TYPE":"U","NORAD_CAT_ID":34648,"ELEMENT_SET_NO":999,"REV_AT_EPOCH":86101,"BSTAR":0.0036101329,"MEAN_MOTION_DOT":7.87e-5,"MEAN_MOTION_DDOT":0},{"OBJECT_NAME":"IRIDIUM 33 DEB","OBJECT_ID":"1997-051KC","EPOCH":"2026-03-04T02:45:19.429344","MEAN_MOTION":14.27193654,"ECCENTRICITY":0.0131885,"INCLINATION":86.2782,"RA_OF_ASC_NODE":105.9017,"ARG_OF_PERICENTER":301.8997,"MEAN_ANOMALY":56.9419,"EPHEMERIS_TYPE":0,"CLASSIFICATION_TYPE":"U","NORAD_CAT_ID":34651,"ELEMENT_SET_NO":999,"REV_AT_EPOCH":87056,"BSTAR":0.0035985,"MEAN_MOTION_DOT":9.658e-5,"MEAN_MOTION_DDOT":0},{"OBJECT_NAME":"IRIDIUM 33 DEB","OBJECT_ID":"1997-051KD","EPOCH":"2026-03-03T16:36:26.735040","MEAN_MOTION":14.62914267,"ECCENTRICITY":0.00290077,"INCLINATION":86.3295,"RA_OF_ASC_NODE":303.9474,"ARG_OF_PERICENTER":22.9599,"MEAN_ANOMALY":32.4891,"EPHEMERIS_TYPE":0,"CLASSIFICATION_TYPE":"U","NORAD_CAT_ID":34652,"ELEMENT_SET_NO":999,"REV_AT_EPOCH":89667,"BSTAR":0.00092810952,"MEAN_MOTION_DOT":4.797e-5,"MEAN_MOTION_DDOT":0},{"OBJECT_NAME":"IRIDIUM 33 DEB","OBJECT_ID":"1997-051KM","EPOCH":"2026-03-04T01:33:57.252672","MEAN_MOTION":14.55436968,"ECCENTRICITY":0.0012444,"INCLINATION":86.3816,"RA_OF_ASC_NODE":1.637,"ARG_OF_PERICENTER":97.4298,"MEAN_ANOMALY":31.0235,"EPHEMERIS_TYPE":0,"CLASSIFICATION_TYPE":"U","NORAD_CAT_ID":34690,"ELEMENT_SET_NO":999,"REV_AT_EPOCH":89277,"BSTAR":0.00054051,"MEAN_MOTION_DOT":2.372e-5,"MEAN_MOTION_DDOT":0},{"OBJECT_NAME":"IRIDIUM 33 DEB","OBJECT_ID":"1997-051KQ","EPOCH":"2026-02-24T23:46:27.128064","MEAN_MOTION":15.78525,"ECCENTRICITY":0.00039393,"INCLINATION":86.2833,"RA_OF_ASC_NODE":265.9163,"ARG_OF_PERICENTER":44.5223,"MEAN_ANOMALY":315.6368,"EPHEMERIS_TYPE":0,"CLASSIFICATION_TYPE":"U","NORAD_CAT_ID":34693,"ELEMENT_SET_NO":999,"REV_AT_EPOCH":90061,"BSTAR":0.0068576941,"MEAN_MOTION_DOT":0.01322234,"MEAN_MOTION_DDOT":0},{"OBJECT_NAME":"IRIDIUM 33 DEB","OBJECT_ID":"1997-051KT","EPOCH":"2026-03-03T18:50:19.529664","MEAN_MOTION":14.71841744,"ECCENTRICITY":0.00578886,"INCLINATION":86.1826,"RA_OF_ASC_NODE":349.629,"ARG_OF_PERICENTER":253.5917,"MEAN_ANOMALY":136.5957,"EPHEMERIS_TYPE":0,"CLASSIFICATION_TYPE":"U","NORAD_CAT_ID":34696,"ELEMENT_SET_NO":999,"REV_AT_EPOCH":87862,"BSTAR":0.007320575,"MEAN_MOTION_DOT":0.00047274,"MEAN_MOTION_DDOT":0}]
