IRIDIUM 33 DEB          
1 34487U 97051GC  26063.19802447  .00000925  00000+0  26701-3 0  9994
2 34487  86.3484 337.3222 0029300 218.4002 305.7839 14.43371922894231
IRIDIUM 33 DEB          
1 34488U 97051GD  26053.04643645  .01238203  00000+0  64727-2 0  9993
2 34488  86.3081 269.5420 0004770  70.8002 289.3788 15.78089963903416
IRIDIUM 33 DEB          
1 34492U 97051GH  26062.63372245  .00014887  00000+0  50088-2 0  9992
2 34492  86.4708 301.8898 0186973 339.1012  48.8875 14.27603126862128
IRIDIUM 33 DEB          
1 34497U 97051GN  26062.34397545  .00002434  00000+0  94382-3 0  9996
2 34497  86.2804  17.9487 0082403  78.5013  72.8680 14.27752546880330
IRIDIUM 33 DEB          
1 34508U 97051GZ  26062.49372736  .00004218  00000+0  13292-2 0  9992
2 34508  86.3655  68.3662 0061766 268.6215  90.7907 14.39076456884706
IRIDIUM 33 DEB          
1 34521U 97051HN  26062.85163253  .00010299  00000+0  19361-2 0  9998
2 34521  86.3835 354.8102 0005056  22.0148 338.1281 14.64559514896593
IRIDIUM 33 DEB          
1 34525U 97051HS  26062.82348050  .00001832  00000+0  53993-3 0  9992
2 34525  86.3766  12.2223 0004484 154.0850 270.6719 14.43154742892570
IRIDIUM 33 DEB          
1 34529U 97051HW  26062.82510154  .00000884  00000+0  27050-3 0  9993
2 34529  86.3690   0.8460 0003383 317.5123  42.5814 14.40728752893097
IRIDIUM 33 DEB          
1 34538U 97051JF  26063.17384373  .00003973  00000+0  11659-2 0  9993
2 34538  86.2803 329.8895 0036561  56.3218  97.7254 14.43244168889301
IRIDIUM 33 DEB          
1 34540U 97051JH  26063.08032159  .00013583  00000+0  19070-2 0  9991
2 34540  86.3049 270.3553 0014355 244.9978 245.3130 14.77274849902219
IRIDIUM 33 DEB          
1 34648U 97051JZ  26062.51875569  .00007870  00000+0  36101-2 0  9993
2 34648  86.3888 249.2844 0176101  42.7162 318.7556 14.13320435861016
IRIDIUM 33 DEB          
1 34651U 97051KC  26063.11480821  .00009658  00000+0  35985-2 0  9992
2 34651  86.2782 105.9017 0131885 301.8997  56.9419 14.27193654870562
IRIDIUM 33 DEB          
1 34652U 97051KD  26062.69197610  .00004797  00000+0  92811-3 0  9997
2 34652  86.3295 303.9474 0029007  22.9599  32.4891 14.62914267896674
IRIDIUM 33 DEB          
1 34690U 97051KM  26063.06524598  .00002372  00000+0  54051-3 0  9991
2 34690  86.3816   1.6370 0012444  97.4298  31.0235 14.55436968892775
IRIDIUM 33 DEB          
1 34693U 97051KQ  26055.99059176  .01322234  00000+0  68577-2 0  9992
2 34693  86.2833 265.9163 0003939  44.5223 315.6368 15.78525000900614
IRIDIUM 33 DEB          
1 34696U 97051KT  26062.78494826  .00047274  00000+0  73206-2 0  9997
2 34696  86.1826 349.6290 0057888 253.5917 136.5957 14.71841744878620
